STARLINK-4515           
1 53397U 22097K   25132.43782152  .00000090  00000+0  23770-4 0  9993
2 53397  53.2203  36.4925 0001452  93.4022 266.7136 15.08842905153030
STARLINK-4512           
1 53398U 22097L   25132.15445316  .00001204  00000+0  93721-4 0  9992
2 53398  53.2193  37.7622 0001543 100.8984 259.2181 15.08847607152993
STARLINK-4528           
1 53399U 22097M   25132.43045973 -.00000043  00000+0  15405-4 0  9993
2 53399  53.2187  36.5219 0001270  79.6445 280.4690 15.08838922153035
STARLINK-4520           
1 53400U 22097N   25132.14336948  .00006080  00000+0  39918-3 0  9999
2 53400  53.2181  37.8128 0001242  83.6992 276.4142 15.08896254152999
STARLINK-4525           
1 53401U 22097P   25132.42310354 -.00000072  00000+0  13558-4 0  9993
2 53401  53.2185  36.5580 0001399  89.3791 270.7361 15.08842784153030
STARLINK-4499           
1 53402U 22097Q   25132.47094420 -.00000110  00000+0  11207-4 0  9994
2 53402  53.2194  36.3384 0001481 118.9439 241.1702 15.08834831153047
STARLINK-4507           
1 53403U 22097R   25132.44985554  .00001349  00000+0  10281-3 0  9993
2 53403  53.2200  36.7867 0001527  89.5534 270.5633 15.08848706153030
STARLINK-4509           
1 53404U 22097S   25132.12320490 -.00002438  00000+0 -13511-3 0  9992
2 53404  53.2195  27.8365 0002101 142.7304 217.3834 15.08846784153120
STARLINK-4510           
1 53405U 22097T   25132.00357868  .00000095  00000+0  24027-4 0  9999
2 53405  53.2182  38.4438 0001235 106.7669 253.3459 15.08848419152979
STARLINK-4533           
1 53406U 22097U   25132.44242077  .00000228  00000+0  32424-4 0  9991
2 53406  53.2192  26.4708 0001493  92.0642 268.0522 15.08839289153174
STARLINK-4537           
1 53407U 22097V   25132.38449564 -.00001532  00000+0 -78205-4 0  9993
2 53407  53.2185  16.9654 0001458 106.1960 253.9193 15.08839801153304
STARLINK-4491           
1 53408U 22097W   25132.12225984  .00000492  00000+0  48987-4 0  9990
2 53408  53.2181  27.9135 0001330  97.3696 262.7448 15.08841427153121
STARLINK-4490           
1 53409U 22097X   25132.38081028  .00000448  00000+0  46240-4 0  9999
2 53409  53.2189  16.9437 0001521  93.4699 266.6467 15.08835882153307
STARLINK-4492           
1 53410U 22097Y   25131.98609868  .00000286  00000+0  36080-4 0  9995
2 53410  53.2196  28.5179 0001563 105.5091 254.6074 15.08843636153101
STARLINK-4497           
1 53411U 22097Z   25131.92722343 -.00000919  00000+0 -39621-4 0  9993
2 53411  53.2182  28.7847 0001557  92.4826 267.6344 15.08843283153094
STARLINK-4496           
1 53412U 22097AA  25132.43873997  .00000368  00000+0  41206-4 0  9991
2 53412  53.2170  26.4880 0001520  86.0774 274.0392 15.08840207153172
STARLINK-4500           
1 53413U 22097AB  25132.11490039  .00004543  00000+0  30347-3 0  9991
2 53413  53.2185  27.9398 0001485  96.6158 263.5003 15.08825955153122
STARLINK-4304           
1 53414U 22097AC  25132.43506498 -.00001341  00000+0 -66177-4 0  9990
2 53414  53.2193  26.5046 0001469  88.8959 271.2201 15.08830147153160
STARLINK-4479           
1 53415U 22097AD  25132.43138296  .00000174  00000+0  29001-4 0  9994
2 53415  53.2194  26.5203 0001491  81.4283 278.6878 15.08840939153140
STARLINK-4480           
1 53416U 22097AE  25132.08545585  .00001335  00000+0  10196-3 0  9993
2 53416  53.2183  28.0252 0001354 101.2400 258.8744 15.08843575153095
STARLINK-4484           
1 53417U 22097AF  25132.03026362 -.00000587  00000+0 -18777-4 0  9990
2 53417  53.2185  28.3202 0001605  88.3078 271.8098 15.08848579153086
STARLINK-4481           
1 53418U 22097AG  25132.38809145  .00002011  00000+0  14438-3 0  9998
2 53418  53.2186  16.2801 0002661  95.1056 265.0240 15.08847055153312
STARLINK-4476           
1 53419U 22097AH  25132.42402157  .00001732  00000+0  12685-3 0  9997
2 53419  53.2193  26.5536 0001436  96.3780 263.7376 15.08851691153143
STARLINK-4552           
1 53420U 22097AJ  25132.41298383 -.00001009  00000+0 -45314-4 0  9997
2 53420  53.2185  26.6018 0001372  80.2252 279.8895 15.08843058153149
STARLINK-4545           
1 53421U 22097AK  25132.08912963  .00002740  00000+0  19010-3 0  9992
2 53421  53.2201  28.0559 0001240  97.6331 262.4802 15.08858354153094
STARLINK-4546           
1 53422U 22097AL  25132.40562240 -.00001618  00000+0 -83591-4 0  9999
2 53422  53.2175  26.6324 0001448  88.1633 271.9525 15.08830411153168
STARLINK-4539           
1 53423U 22097AM  25132.08642227  .00000141  00000+0  26926-4 0  9995
2 53423  53.2188  28.0791 0001150  93.5535 266.5588 15.08836971153096
STARLINK-4532           
1 53424U 22097AN  25132.39825081 -.00000822  00000+0 -33538-4 0  9996
2 53424  53.2185  26.6675 0001412  92.3450 267.7704 15.08834688153167
STARLINK-4531           
1 53425U 22097AP  25132.40930553 -.00000473  00000+0 -11632-4 0  9993
2 53425  53.2177  26.6162 0001369  78.1631 281.9514 15.08835171153136
STARLINK-4558           
1 53426U 22097AQ  25132.64208149 -.00000080  00000+0  13080-4 0  9991
2 53426  53.2194  15.7369 0001399 105.2072 254.9075 15.08838001153337
STARLINK-4543           
1 53429U 22097AT  25132.37343234  .00001207  00000+0  93931-4 0  9993
2 53429  53.2184  16.8975 0001277  94.3282 265.7856 15.08841198153293
STARLINK-4538           
1 53430U 22097AU  25132.36605884  .00001250  00000+0  96610-4 0  9991
2 53430  53.2191  16.8539 0001384  87.2448 272.8702 15.08847401153273
STARLINK-4548           
1 53431U 22097AV  25132.39177903 -.00000284  00000+0  22305-6 0  9990
2 53431  53.2187  16.3116 0001365  86.2346 273.8802 15.08836252153308
STARLINK-4557           
1 53432U 22097AW  25132.40651376 -.00000882  00000+0 -37344-4 0  9996
2 53432  53.2183  16.3902 0001330 116.8541 243.2587 15.08843002153309
STARLINK-4549           
1 53433U 22097AX  25132.09742165  .00001602  00000+0  11873-3 0  9996
2 53433  53.2192  18.0169 0001322  96.7190 263.3953 15.08842316153230
STARLINK-4498           
1 53434U 22097AY  25132.40282913  .00007274  00000+0  47438-3 0  9999
2 53434  53.2176  16.3705 0000975  98.5327 261.5775 15.08860311153311
STARLINK-4542           
1 53435U 22097AZ  25132.41019601  .00001430  00000+0  10794-3 0  9996
2 53435  53.2189  16.4160 0001448  86.2114 273.9043 15.08828171153285
STARLINK-4527           
1 53436U 22097BA  25132.39914194  .00000462  00000+0  47094-4 0  9993
2 53436  53.2189  16.3491 0001445  87.0456 273.0702 15.08840098153305
STARLINK-4526           
1 53438U 22097BC  25132.39545772 -.00001459  00000+0 -73598-4 0  9994
2 53438  53.2187  16.3264 0001240  90.2465 269.8669 15.08847649153317
STARLINK-4519           
1 53439U 22097BD  25132.40744570  .00001614  00000+0  11935-3 0  9991
2 53439  53.2183  16.3954 0001031  91.2502 268.8608 15.08869544153311
STARLINK-4415           
1 53465U 22099A   25132.59225995  .00000218  00000+0  21534-4 0  9993
2 53465  97.6550 254.7278 0001534  90.1139 270.0261 15.01262818150792
STARLINK-4398           
1 53466U 22099B   25132.58335648 -.00002922  00000+0 -22303-3 0  9990
2 53466  97.6549 254.7135 0001662  92.1884 218.5536 15.01249049  5820
STARLINK-4394           
1 53467U 22099C   25132.58929874 -.00102243  00000+0 -82387-2 0  9995
2 53467  97.6540 254.7738 0005996 119.9872 240.1947 15.00459015150801
STARLINK-4400           
1 53468U 22099D   25132.32143623  .00100436  00000+0  75599-2 0  9995
2 53468  97.6546 254.4569 0002798 339.0146  21.0964 15.02025196150764
STARLINK-4399           
1 53469U 22099E   25132.58484882  .00001336  00000+0  10861-3 0  9990
2 53469  97.6539 254.7187 0000611 174.8821 185.2410 15.01264348150800
STARLINK-4393           
1 53470U 22099F   25132.58671002  .00000317  00000+0  29273-4 0  9990
2 53470  97.6545 254.7175 0001267  80.5586 279.5781 15.01260658151040
STARLINK-4316           
1 53471U 22099G   25132.58114407  .00001334  00000+0  10842-3 0  9993
2 53471  97.6527 254.7070 0000586 207.2403 152.8791 15.01264070150803
STARLINK-4447           
1 53472U 22099H   25132.58299386  .00000987  00000+0  81431-4 0  9990
2 53472  97.6532 254.7158 0000707 187.1235 172.9980 15.01265960151040
STARLINK-4383           
1 53473U 22099J   25132.57741820  .00002003  00000+0  16056-3 0  9996
2 53473  97.6539 254.6976 0003919 217.9381 142.1568 15.01248961150803
STARLINK-4445           
1 53474U 22099K   25132.57028734  .00005241  00000+0  41228-3 0  9995
2 53474  97.6551 254.6898 0004186 179.6347 180.4881 15.01263494150805
STARLINK-4389           
1 53475U 22099L   25132.57559185 -.00002819  00000+0 -21495-3 0  9999
2 53475  97.6542 254.6952 0001883 215.1883 144.9217 15.01263954151506
STARLINK-4378           
1 53476U 22099M   25132.57928678 -.00000393  00000+0 -25990-4 0  9997
2 53476  97.6537 254.7003 0002302 240.4693 119.6302 15.01267055150808
STARLINK-4412           
1 53477U 22099N   25132.59040587 -.00001492  00000+0 -11158-3 0  9995
2 53477  97.6552 254.6815 0001708  99.9790 260.1627 15.01261001151505
STARLINK-4433           
1 53478U 22099P   25132.57188382  .00001743  00000+0  14027-3 0  9995
2 53478  97.6545 254.7045 0004500 191.0063 169.1064 15.01260616150800
STARLINK-4436           
1 53479U 22099Q   25132.57003831  .00003031  00000+0  24046-3 0  9995
2 53479  97.6552 254.6896 0003676 178.9335 181.1898 15.01265278150809
STARLINK-4442           
1 53480U 22099R   25132.57373841  .00001076  00000+0  88330-4 0  9992
2 53480  97.6543 254.6930 0003302 193.7308 166.3827 15.01262863150805
STARLINK-4302           
1 53481U 22099S   25132.30157562  .00000892  00000+0  74039-4 0  9990
2 53481  97.6554 254.4252 0005124 176.0719 184.0546 15.01266029150765
STARLINK-4360           
1 53482U 22099T   25132.62372323  .00004035  00000+0  31845-3 0  9990
2 53482  97.6567 254.7824 0000932 133.4110 226.7192 15.01271416150815
STARLINK-4401           
1 53483U 22099U   25131.28483340  .00089195  00000+0  67336-2 0  9997
2 53483  97.6721 253.4977 0004828 124.6070 235.5611 15.01971415150605
